{"type": "FeatureCollection", "features": [ {"type": "Feature", "properties": {"norad_id": 39574, "name": "GPM-CORE", "group": "resource", "lat": 64.10091655121148, "lon": -26.44210753943122, "alt_km": 430.03418948951, "timestamp": "2025-12-08T05:48:08.704605+00:00", "meta": {"OBJECT_NAME": "GPM-CORE", "OBJECT_ID": "2014-009C", "EPOCH": "2025-12-07T23:10:19.706304", "MEAN_MOTION": 15.45389122, "ECCENTRICITY": 0.00105028, "INCLINATION": 64.9739, "RA_OF_ASC_NODE": 228.6778, "ARG_OF_PERICENTER": 269.9346, "MEAN_ANOMALY": 90.0591, "EPHEMERIS_TYPE": 0, "CLASSIFICATION_TYPE": "U", "NORAD_CAT_ID": 39574, "ELEMENT_SET_NO": 999, "REV_AT_EPOCH": 66827, "BSTAR": 0.00037729317, "MEAN_MOTION_DOT": 0.00017955, "MEAN_MOTION_DDOT": 0}, "tle": {"line1": "1 39574U 14009C   25341.96550586  .00017955  00000+0  37729-3 0  9998", "line2": "2 39574  64.9739 228.6778 0010502 269.9346  90.0591 15.45389122668278"}}, "geometry": {"type": "Point", "coordinates": [-26.44210753943122, 64.10091655121148]}}, {"type": "Feature", "properties": {"norad_id": 39634, "name": "SENTINEL-1A", "group": "resource", "lat": -81.80388523517944, "lon": 80.46775258095175, "alt_km": 703.9867986919944, "timestamp": "2025-12-08T05:48:08.704615+00:00", "meta": {"OBJECT_NAME": "SENTINEL-1A", "OBJECT_ID": "2014-016A", "EPOCH": "2025-12-07T23:38:00.636576", "MEAN_MOTION": 14.59199506, "ECCENTRICITY": 0.00012431, "INCLINATION": 98.1803, "RA_OF_ASC_NODE": 347.2964, "ARG_OF_PERICENTER": 89.2088, "MEAN_ANOMALY": 270.9254, "EPHEMERIS_TYPE": 0, "CLASSIFICATION_TYPE": "U", "NORAD_CAT_ID": 39634, "ELEMENT_SET_NO": 999, "REV_AT_EPOCH": 62213, "BSTAR": 7.7366919e-05, "MEAN_MOTION_DOT": 3.19e-06, "MEAN_MOTION_DDOT": 0}, "tle": {"line1": "1 39634U 14016A   25341.98472959  .00000319  00000+0  77367-4 0  9991", "line2": "2 39634  98.1803 347.2964 0001243  89.2088 270.9254 14.59199506622138"}}, "geometry": {"type": "Point", "coordinates": [80.46775258095175, -81.80388523517944]}}, {"type": "Feature", "properties": {"norad_id": 39731, "name": "KAZEOSAT 1", "group": "resource", "lat": 18.486357906728024, "lon": -122.93741774478416, "alt_km": 751.6196010141057, "timestamp": "2025-12-08T05:48:08.704624+00:00", "meta": {"OBJECT_NAME": "KAZEOSAT 1", "OBJECT_ID": "2014-024A", "EPOCH": "2025-12-07T22:23:47.009472", "MEAN_MOTION": 14.42058196, "ECCENTRICITY": 0.00010786, "INCLINATION": 98.3441, "RA_OF_ASC_NODE": 53.9484, "ARG_OF_PERICENTER": 100.0332, "MEAN_ANOMALY": 260.098, "EPHEMERIS_TYPE": 0, "CLASSIFICATION_TYPE": "U", "NORAD_CAT_ID": 39731, "ELEMENT_SET_NO": 999, "REV_AT_EPOCH": 61099, "BSTAR": 0.00013951434, "MEAN_MOTION_DOT": 4.15e-06, "MEAN_MOTION_DDOT": 0}, "tle": {"line1": "1 39731U 14024A   25341.93318298  .00000415  00000+0  13951-3 0  9993", "line2": "2 39731  98.3441  53.9484 0001078 100.0332 260.0980 14.42058196610992"}}, "geometry": {"type": "Point", "coordinates": [-122.93741774478416, 18.486357906728024]}}, {"type": "Feature", "properties": {"norad_id": 39766, "name": "ALOS-2", "group": "resource", "lat": 19.033441713563825, "lon": -100.09400967625334, "alt_km": 630.7127436373312, "timestamp": "2025-12-08T05:48:08.704635+00:00", "meta": {"OBJECT_NAME": "ALOS-2", "OBJECT_ID": "2014-029A", "EPOCH": "2025-12-07T22:35:09.181536", "MEAN_MOTION": 14.79460828, "ECCENTRICITY": 0.00014651, "INCLINATION": 97.9232, "RA_OF_ASC_NODE": 76.8558, "ARG_OF_PERICENTER": 104.341, "MEAN_ANOMALY": 255.7964, "EPHEMERIS_TYPE": 0, "CLASSIFICATION_TYPE": "U", "NORAD_CAT_ID": 39766, "ELEMENT_SET_NO": 999, "REV_AT_EPOCH": 62330, "BSTAR": 0.00038942217, "MEAN_MOTION_DOT": 2.857e-05, "MEAN_MOTION_DDOT": 0}, "tle": {"line1": "1 39766U 14029A   25341.94107849  .00002857  00000+0  38942-3 0  9994", "line2": "2 39766  97.9232  76.8558 0001465 104.3410 255.7964 14.79460828623304"}}, "geometry": {"type": "Point", "coordinates": [-100.09400967625334, 19.033441713563825]}}, {"type": "Feature", "properties": {"norad_id": 40010, "name": "KAZEOSAT 2", "group": "resource", "lat": -21.064302005093317, "lon": -170.2827898844748, "alt_km": 620.6779966927224, "timestamp": "2025-12-08T05:48:08.704644+00:00", "meta": {"OBJECT_NAME": "KAZEOSAT 2", "OBJECT_ID": "2014-033A", "EPOCH": "2025-12-07T21:48:46.962432", "MEAN_MOTION": 14.85155278, "ECCENTRICITY": 0.00074616, "INCLINATION": 97.5515, "RA_OF_ASC_NODE": 186.4729, "ARG_OF_PERICENTER": 224.2478, "MEAN_ANOMALY": 135.8142, "EPHEMERIS_TYPE": 0, "CLASSIFICATION_TYPE": "U", "NORAD_CAT_ID": 40010, "ELEMENT_SET_NO": 999, "REV_AT_EPOCH": 62056, "BSTAR": 0.00014804382, "MEAN_MOTION_DOT": 1.218e-05, "MEAN_MOTION_DDOT": 0}, "tle": {"line1": "1 40010U 14033A   25341.90887688  .00001218  00000+0  14804-3 0  9996", "line2": "2 40010  97.5515 186.4729 0007461 224.2478 135.8142 14.85155278620562"}}, "geometry": {"type": "Point", "coordinates": [-170.2827898844748, -21.064302005093317]}}, {"type": "Feature", "properties": {"norad_id": 40011, "name": "HODOYOSHI-4", "group": "resource", "lat": 28.91016103911814, "lon": 167.15180317186295, "alt_km": 620.4553360957871, "timestamp": "2025-12-08T05:48:08.704655+00:00", "meta": {"OBJECT_NAME": "HODOYOSHI-4", "OBJECT_ID": "2014-033B", "EPOCH": "2025-12-07T21:35:54.891168", "MEAN_MOTION": 14.87454271, "ECCENTRICITY": 0.00228855, "INCLINATION": 97.5416, "RA_OF_ASC_NODE": 171.0227, "ARG_OF_PERICENTER": 217.0727, "MEAN_ANOMALY": 142.891, "EPHEMERIS_TYPE": 0, "CLASSIFICATION_TYPE": "U", "NORAD_CAT_ID": 40011, "ELEMENT_SET_NO": 999, "REV_AT_EPOCH": 62036, "BSTAR": 0.00028799707, "MEAN_MOTION_DOT": 2.568e-05, "MEAN_MOTION_DDOT": 0}, "tle": {"line1": "1 40011U 14033B   25341.89994087  .00002568  00000+0  28800-3 0  9997", "line2": "2 40011  97.5416 171.0227 0022885 217.0727 142.8910 14.87454271620366"}}, "geometry": {"type": "Point", "coordinates": [167.15180317186295, 28.91016103911814]}}, {"type": "Feature", "properties": {"norad_id": 40013, "name": "DEIMOS-2", "group": "resource", "lat": 79.17499062935178, "lon": 82.53117972451868, "alt_km": 580.7082704742807, "timestamp": "2025-12-08T05:48:08.704665+00:00", "meta": {"OBJECT_NAME": "DEIMOS-2", "OBJECT_ID": "2014-033D", "EPOCH": "2025-12-07T21:19:25.123008", "MEAN_MOTION": 14.92941863, "ECCENTRICITY": 0.00010178, "INCLINATION": 97.607, "RA_OF_ASC_NODE": 217.8486, "ARG_OF_PERICENTER": 94.7881, "MEAN_ANOMALY": 265.3455, "EPHEMERIS_TYPE": 0, "CLASSIFICATION_TYPE": "U", "NORAD_CAT_ID": 40013, "ELEMENT_SET_NO": 999, "REV_AT_EPOCH": 60917, "BSTAR": 0.00034022964, "MEAN_MOTION_DOT": 3.477e-05, "MEAN_MOTION_DDOT": 0}, "tle": {"line1": "1 40013U 14033D   25341.88848522  .00003477  00000+0  34023-3 0  9994", "line2": "2 40013  97.6070 217.8486 0001017  94.7881 265.3455 14.92941863609171"}}, "geometry": {"type": "Point", "coordinates": [82.53117972451868, 79.17499062935178]}}, {"type": "Feature", "properties": {"norad_id": 40015, "name": "HODOYOSHI-3", "group": "resource", "lat": -1.8910447632661083, "lon": 148.5257401476617, "alt_km": 619.364078509997, "timestamp": "2025-12-08T05:48:08.704675+00:00", "meta": {"OBJECT_NAME": "HODOYOSHI-3", "OBJECT_ID": "2014-033F", "EPOCH": "2025-12-07T23:20:29.066496", "MEAN_MOTION": 14.84780707, "ECCENTRICITY": 0.0031815, "INCLINATION": 97.6198, "RA_OF_ASC_NODE": 148.0151, "ARG_OF_PERICENTER": 264.2411, "MEAN_ANOMALY": 95.5177, "EPHEMERIS_TYPE": 0, "CLASSIFICATION_TYPE": "U", "NORAD_CAT_ID": 40015, "ELEMENT_SET_NO": 999, "REV_AT_EPOCH": 61924, "BSTAR": 0.00029167545, "MEAN_MOTION_DOT": 2.444e-05, "MEAN_MOTION_DDOT": 0}, "tle": {"line1": "1 40015U 14033F   25341.97255864  .00002444  00000+0  29168-3 0  9994", "line2": "2 40015  97.6198 148.0151 0031815 264.2411  95.5177 14.84780707619242"}}, "geometry": {"type": "Point", "coordinates": [148.5257401476617, -1.8910447632661083]}}, {"type": "Feature", "properties": {"norad_id": 40053, "name": "SPOT 7", "group": "resource", "lat": 68.87073065809136, "lon": -113.9797080905852, "alt_km": 683.105619764794, "timestamp": "2025-12-08T05:48:08.704685+00:00", "meta": {"OBJECT_NAME": "SPOT 7", "OBJECT_ID": "2014-034A", "EPOCH": "2025-12-07T22:43:36.523200", "MEAN_MOTION": 14.60724102, "ECCENTRICITY": 0.00015245, "INCLINATION": 98.0913, "RA_OF_ASC_NODE": 44.1328, "ARG_OF_PERICENTER": 94.1586, "MEAN_ANOMALY": 265.979, "EPHEMERIS_TYPE": 0, "CLASSIFICATION_TYPE": "U", "NORAD_CAT_ID": 40053, "ELEMENT_SET_NO": 999, "REV_AT_EPOCH": 60921, "BSTAR": 0.0002121585, "MEAN_MOTION_DOT": 9.89e-06, "MEAN_MOTION_DDOT": 0}, "tle": {"line1": "1 40053U 14034A   25341.94695050  .00000989  00000+0  21216-3 0  9997", "line2": "2 40053  98.0913  44.1328 0001524  94.1586 265.9790 14.60724102609214"}}, "geometry": {"type": "Point", "coordinates": [-113.9797080905852, 68.87073065809136]}}, {"type": "Feature", "properties": {"norad_id": 40072, "name": "SKYSAT-B", "group": "resource", "lat": -25.263321659076386, "lon": -70.3103302665849, "alt_km": 615.9703426604401, "timestamp": "2025-12-08T05:48:08.704695+00:00", "meta": {"OBJECT_NAME": "SKYSAT-B", "OBJECT_ID": "2014-037D", "EPOCH": "2025-12-07T20:13:45.681312", "MEAN_MOTION": 14.87299827, "ECCENTRICITY": 0.00057461, "INCLINATION": 98.3604, "RA_OF_ASC_NODE": 285.2903, "ARG_OF_PERICENTER": 164.8707, "MEAN_ANOMALY": 195.268, "EPHEMERIS_TYPE": 0, "CLASSIFICATION_TYPE": "U", "NORAD_CAT_ID": 40072, "ELEMENT_SET_NO": 999, "REV_AT_EPOCH": 61751, "BSTAR": 0.00036192076, "MEAN_MOTION_DOT": 3.206e-05, "MEAN_MOTION_DDOT": 0}, "tle": {"line1": "1 40072U 14037D   25341.84288983  .00003206  00000+0  36192-3 0  9997", "line2": "2 40072  98.3604 285.2903 0005746 164.8707 195.2680 14.87299827617517"}}, "geometry": {"type": "Point", "coordinates": [-70.3103302665849, -25.263321659076386]}}]}